HAIYANG-2D              
1 48621U 21043A   26160.62923740 -.00000110  00000+0 -26452-4 0  9995
2 48621  66.0000 323.5170 0011389 270.0189  89.9574 13.83375090255503
2021-050D               
1 48843U 21050D   26160.64998282  .00004728  00000+0  20246-3 0  9995
2 48843  97.3336 236.8574 0003978 300.3866  59.6978 15.23256210277814
TYVAK-0173              
1 48892U 21059P   26160.49990147  .00001657  00000+0  21336-3 0  9992
2 48892  96.0086 238.7673 0010723  62.3709 297.8596 14.81865733267106
MANDRAKE 2 ABLE         
1 48907U 21059AE  26160.51544361  .00020188  00000+0  30580-3 0  9996
2 48907  97.7042 349.7167 0005103  34.2094 325.9487 15.54680272275931
MANDRAKE 2 BAKER        
1 48908U 21059AF  26160.53354228  .00024601  00000+0  31519-3 0  9997
2 48908  97.7012 352.5554 0003606  34.9401 325.2091 15.59172515276101
PACE-1                  
1 48909U 21059AG  26160.48703105  .00075567  00000+0  43411-3 0  9995
2 48909  97.6781 357.7671 0000766 320.2047  39.9162 15.78545826276582
YAM-3                   
1 48915U 21059AN  26160.50649901  .00011064  00000+0  21066-3 0  9992
2 48915  97.6996 346.9613 0005695  36.5782 323.5856 15.48384490275803
FARADAY_PHOENIX         
1 48924U 21059AX  26160.54068452  .00114861  00000+0  71772-3 0  9990
2 48924  97.6833 357.7294 0002406 342.6164  17.5018 15.76521796276455
DEMO8 (TENZING)         
1 48951U 21059CA  26160.51849872  .00019094  00000+0  28897-3 0  9992
2 48951  97.7035 353.3559 0006923  24.0402 336.1173 15.54703873276119
NAPA-2                  
1 48963U 21059CN  26160.24301641  .00290503  35484-4  72516-3 0  9994
2 48963  97.6730 358.3052 0002669 251.6260 108.4724 15.95777302276541
FENGYUN 3E              
1 49008U 21062A   26160.59126627 -.00000208  00000+0 -77064-4 0  9994
2 49008  98.7497 164.0841 0002773  97.6401 262.5091 14.19902657255503
ISS (NAUKA)             
1 49044U 21066A   26160.51346515  .00007341  00000+0  13794-3 0  9992
2 49044  51.6332 338.0748 0006877 150.8507 209.2867 15.49683556570356
STARLINK-3100           
1 49144U 21082Q   26160.42962688  .00002179  00000+0  19029-3 0  9997
2 49144  70.0020  63.1435 0002656 258.5674 101.5187 14.98344678259723
CUTE                    
1 49263U 21088D   26160.20488512  .00130491  83754-5  42597-3 0  9998
2 49263  97.4195 258.7399 0008079 246.7432 113.2991 15.90636354261283
2021-091B               
1 49316U 21091B   26160.61389966  .00002567  00000+0  12737-3 0  9991
2 49316  97.4477 348.3046 0014962  69.0775 291.2059 15.18515022257830
SDGSAT 1                
1 49387U 21100A   26160.59393413  .00002989  00000+0  14223-3 0  9999
2 49387  97.2641 207.8251 0007029 330.7725  29.3117 15.19892379254763
TEIKYOSAT-4 (OORURI)    
1 49396U 21102B   26160.03336917  .00002103  00000+0  13499-3 0  9998
2 49396  97.3672 189.8336 0011066 327.9148  32.1407 15.09479159251491
Z-SAT                   
1 49399U 21102E   26160.61856708  .00003487  00000+0  17328-3 0  9991
2 49399  97.3335 196.1713 0014785 274.4355  85.5190 15.18209436252296
HIBARI                  
1 49400U 21102F   26160.10088498  .00008606  00000+0  28437-3 0  9992
2 49400  97.3243 206.0970 0010547 221.4141 138.6302 15.31566818252953
KOSEN-1                 
1 49402U 21102H   26160.08027342  .00006184  00000+0  23761-3 0  9996
2 49402  97.3193 202.3955 0012432 230.9756 129.0377 15.26721904252783
GLOBAL-14               
1 49469U 21106A   26159.77600881  .00028567  00000+0  49426-3 0  9997
2 49469  42.0063 341.0542 0017086 321.6139  38.3489 15.50184743256821
GAOFEN-3 02             
1 49495U 21109A   26160.62547079  .00000116  00000+0  48490-4 0  9995
2 49495  98.4092 168.8297 0003400  34.7862 325.3550 14.42216353239225
GLOBAL-12               
1 49772U 21115BA  26160.48139617  .00028673  00000+0  45598-3 0  9992
2 49772  53.1947  81.5788 0003448  53.5939 306.5390 15.53099141254702
GLOBAL-13               
1 49773U 21115BB  26160.10302467  .00018392  00000+0  38236-3 0  9995
2 49773  53.1969  93.0090 0004181  91.4086 268.7401 15.45724588254512
GLOBAL-17               
1 49949U 21120A   26160.10937778  .00023159  00000+0  37984-3 0  9991
2 49949  41.9940  97.4128 0014363 203.9461 156.0717 15.51823851253643
GLOBAL-16               
1 49950U 21120B   26160.11206314  .00021004  00000+0  37143-3 0  9993
2 49950  41.9946 100.9788 0012147 196.2575 163.7880 15.49786682253598
XW-3 (CAS-9)            
1 50466U 21131B   26160.62673997  .00000482  00000+0  16254-3 0  9997
2 50466  98.4971 253.0574 0005268 114.2262 245.9478 14.41351092234026
ION SCV-004             
1 50993U 22002K   26160.51939500  .00004859  00000+0  16784-3 0  9993
2 50993  97.2841 218.3222 0007986  33.7445 326.4303 15.30376286244120
ETV-A1                  
1 51060U 22002CE  26160.60922726  .00009847  00000+0  24452-3 0  9994
2 51060  97.2882 226.9370 0005358  30.5878 329.5680 15.40523191244678
BRO-5                   
1 51061U 22002CF  26160.61911164  .00026437  00000+0  52521-3 0  9992
2 51061  97.3001 234.2230 0004276   4.8624 355.2667 15.46948450245083
