OBJECT_NAME,OBJECT_ID,EPOCH,MEAN_MOTION,ECCENTRICITY,INCLINATION,RA_OF_ASC_NODE,ARG_OF_PERICENTER,MEAN_ANOMALY,EPHEMERIS_TYPE,CLASSIFICATION_TYPE,NORAD_CAT_ID,ELEMENT_SET_NO,REV_AT_EPOCH,BSTAR,MEAN_MOTION_DOT,MEAN_MOTION_DDOT
HAIYANG-2D,2021-043A,2026-06-09T15:06:06.111360,13.83375090,.00113899,66.0000,323.5170,270.0189,89.9574,0,U,48621,999,25550,-.26452481E-4,-.11E-5,0
2021-050D,2021-050D,2026-06-09T15:35:58.515648,15.23256210,.00039783,97.3336,236.8574,300.3866,59.6978,0,U,48843,999,27781,.2024642E-3,.4728E-4,0
TYVAK-0173,2021-059P,2026-06-09T11:59:51.487008,14.81865733,.00107237,96.0086,238.7673,62.3709,297.8596,0,U,48892,999,26710,.21335737E-3,.1657E-4,0
MANDRAKE 2 ABLE,2021-059AE,2026-06-09T12:22:14.327904,15.54680272,.00051036,97.7042,349.7167,34.2094,325.9487,0,U,48907,999,27593,.30579922E-3,.20188E-3,0
MANDRAKE 2 BAKER,2021-059AF,2026-06-09T12:48:18.052992,15.59172515,.00036068,97.7012,352.5554,34.9401,325.2091,0,U,48908,999,27610,.31518923E-3,.24601E-3,0
PACE-1,2021-059AG,2026-06-09T11:41:19.482720,15.78545826,.00007668,97.6781,357.7671,320.2047,39.9162,0,U,48909,999,27658,.43410879E-3,.75567E-3,0
YAM-3,2021-059AN,2026-06-09T12:09:21.514464,15.48384490,.00056957,97.6996,346.9613,36.5782,323.5856,0,U,48915,999,27580,.21065832E-3,.11064E-3,0
FARADAY_PHOENIX,2021-059AX,2026-06-09T12:58:35.142528,15.76521796,.00024063,97.6833,357.7294,342.6164,17.5018,0,U,48924,999,27645,.71771852E-3,.114861E-2,0
DEMO8 (TENZING),2021-059CA,2026-06-09T12:26:38.289408,15.54703873,.00069235,97.7035,353.3559,24.0402,336.1173,0,U,48951,999,27611,.28897283E-3,.19094E-3,0
NAPA-2,2021-059CN,2026-06-09T05:49:56.617824,15.95777302,.00026691,97.6730,358.3052,251.6260,108.4724,0,U,48963,999,27654,.72515668E-3,.290503E-2,.35483944E-4
FENGYUN 3E,2021-062A,2026-06-09T14:11:25.405728,14.19902657,.00027738,98.7497,164.0841,97.6401,262.5091,0,U,49008,999,25550,-.77064271E-4,-.208E-5,0
ISS (NAUKA),2021-066A,2026-06-09T12:19:23.388960,15.49683556,.0006877,51.6332,338.0748,150.8507,209.2867,0,U,49044,999,57035,.13793845E-3,.7341E-4,0
STARLINK-3100,2021-082Q,2026-06-09T10:18:39.762432,14.98344678,.00026567,70.0020,63.1435,258.5674,101.5187,0,U,49144,999,25972,.19028656E-3,.2179E-4,0
CUTE,2021-088D,2026-06-09T04:55:02.074368,15.90636354,.0008079,97.4195,258.7399,246.7432,113.2991,0,U,49263,999,26128,.42597E-3,.130491E-2,.83754E-5
2021-091B,2021-091B,2026-06-09T14:44:00.930624,15.18515022,.00149629,97.4477,348.3046,69.0775,291.2059,0,U,49316,999,25783,.12736955E-3,.2567E-4,0
SDGSAT 1,2021-100A,2026-06-09T14:15:15.908832,15.19892379,.00070293,97.2641,207.8251,330.7725,29.3117,0,U,49387,999,25476,.14222597E-3,.2989E-4,0
TEIKYOSAT-4 (OORURI),2021-102B,2026-06-09T00:48:03.096288,15.09479159,.00110662,97.3672,189.8336,327.9148,32.1407,0,U,49396,999,25149,.13498817E-3,.2103E-4,0
Z-SAT,2021-102E,2026-06-09T14:50:44.195712,15.18209436,.00147851,97.3335,196.1713,274.4355,85.5190,0,U,49399,999,25229,.17327771E-3,.3487E-4,0
HIBARI,2021-102F,2026-06-09T02:25:16.462272,15.31566818,.00105473,97.3243,206.0970,221.4141,138.6302,0,U,49400,999,25295,.28437074E-3,.8606E-4,0
KOSEN-1,2021-102H,2026-06-09T01:55:35.623488,15.26721904,.00124326,97.3193,202.3955,230.9756,129.0377,0,U,49402,999,25278,.2376113E-3,.6184E-4,0
GLOBAL-14,2021-106A,2026-06-08T18:37:27.161184,15.50184743,.00170861,42.0063,341.0542,321.6139,38.3489,0,U,49469,999,25682,.49425997E-3,.28567E-3,0
GAOFEN-3 02,2021-109A,2026-06-09T15:00:40.676256,14.42216353,.00034008,98.4092,168.8297,34.7862,325.3550,0,U,49495,999,23922,.48489673E-4,.116E-5,0
GLOBAL-12,2021-115BA,2026-06-09T11:33:12.629088,15.53099141,.00034489,53.1947,81.5788,53.5939,306.5390,0,U,49772,999,25470,.45597996E-3,.28673E-3,0
GLOBAL-13,2021-115BB,2026-06-09T02:28:21.331488,15.45724588,.0004181,53.1969,93.0090,91.4086,268.7401,0,U,49773,999,25451,.38235845E-3,.18392E-3,0
GLOBAL-17,2021-120A,2026-06-09T02:37:30.240192,15.51823851,.00143637,41.9940,97.4128,203.9461,156.0717,0,U,49949,999,25364,.37983939E-3,.23159E-3,0
GLOBAL-16,2021-120B,2026-06-09T02:41:22.255296,15.49786682,.00121478,41.9946,100.9788,196.2575,163.7880,0,U,49950,999,25359,.37142955E-3,.21004E-3,0
XW-3 (CAS-9),2021-131B,2026-06-09T15:02:30.333408,14.41351092,.00052686,98.4971,253.0574,114.2262,245.9478,0,U,50466,999,23402,.16253733E-3,.482E-5,0
ION SCV-004,2022-002K,2026-06-09T12:27:55.728000,15.30376286,.00079864,97.2841,218.3222,33.7445,326.4303,0,U,50993,999,24412,.16784143E-3,.4859E-4,0
ETV-A1,2022-002CE,2026-06-09T14:37:17.235264,15.40523191,.00053586,97.2882,226.9370,30.5878,329.5680,0,U,51060,999,24467,.24451666E-3,.9847E-4,0
BRO-5,2022-002CF,2026-06-09T14:51:31.245696,15.46948450,.0004276,97.3001,234.2230,4.8624,355.2667,0,U,51061,999,24508,.52520707E-3,.26437E-3,0
